OBJECT_NAME,OBJECT_ID,EPOCH,MEAN_MOTION,ECCENTRICITY,INCLINATION,RA_OF_ASC_NODE,ARG_OF_PERICENTER,MEAN_ANOMALY,EPHEMERIS_TYPE,CLASSIFICATION_TYPE,NORAD_CAT_ID,ELEMENT_SET_NO,REV_AT_EPOCH,BSTAR,MEAN_MOTION_DOT,MEAN_MOTION_DDOT
STARLINK-36094,2025-281D,2026-06-22T13:12:41.097888,15.27588381,.00012321,43.0036,111.1863,286.7975,73.2742,0,U,66851,999,3222,.46171005E-3,.12468E-3,0
STARLINK-35992,2025-281E,2026-06-22T13:07:07.997376,15.27591968,.00014066,43.0014,111.1591,264.0013,96.0678,0,U,66852,999,3222,.65187902E-3,.17726E-3,0
STARLINK-35986,2025-281F,2026-06-22T13:01:34.807008,15.27587705,.00005776,43.0002,111.1302,274.4565,85.6220,0,U,66853,999,3222,.37420831E-3,.10052E-3,0
STARLINK-36087,2025-281G,2026-06-22T12:56:01.472352,15.27594548,.00017634,43.0044,111.1020,270.0887,89.9762,0,U,66854,999,3222,.52406459E-3,.14193E-3,0
STARLINK-36090,2025-281H,2026-06-22T12:41:13.425504,15.27588927,.00012108,42.9987,111.0169,274.2768,85.7945,0,U,66855,999,3222,.34355244E-3,.9206E-4,0
STARLINK-36072,2025-281J,2026-06-22T06:13:42.642048,15.27582574,.00008637,42.9980,113.3084,265.0582,95.0171,0,U,66856,999,3217,.29141031E-3,.7766E-4,0
STARLINK-36083,2025-281K,2026-06-22T04:28:28.231968,15.27558066,.00011724,42.9973,113.6188,264.0326,96.0392,0,U,66857,999,3216,.16031365E-3,.4149E-4,0
STARLINK-35118,2025-281L,2026-06-22T04:08:05.925984,15.27594857,.00015239,43.0012,113.5098,275.7403,84.3275,0,U,66858,999,3216,.47805402E-3,.12922E-3,0
STARLINK-35646,2025-281M,2026-06-22T05:36:44.251200,15.27575430,.00016086,43.0016,113.1095,252.4541,107.6135,0,U,66859,999,3217,.85083184E-3,.23222E-3,0
STARLINK-35987,2025-281N,2026-06-22T03:38:28.863744,15.27600636,.00027024,43.0020,113.3536,240.4396,119.6187,0,U,66860,999,3216,.51885961E-3,.14052E-3,0
STARLINK-35991,2025-281P,2026-06-22T12:50:28.952448,15.27586884,.00002487,42.9990,111.0718,349.2524,10.8323,0,U,66861,999,3222,.78677841E-3,.21456E-3,0
STARLINK-35974,2025-281Q,2026-06-22T13:21:56.191968,15.27584499,.00014947,43.0025,111.2346,269.1731,90.8949,0,U,66862,999,3222,.45230007E-3,.12206E-3,0
STARLINK-36134,2025-281R,2026-06-22T12:35:40.349184,15.27582731,.00014308,43.0005,110.9857,264.9495,95.1193,0,U,66863,999,3222,.24955574E-3,.6612E-4,0
STARLINK-36070,2025-281S,2026-06-22T05:58:53.424480,15.27605129,.00012805,42.9983,113.2273,264.5051,95.5655,0,U,66864,999,3217,.45086458E-3,.12175E-3,0
STARLINK-36117,2025-281T,2026-06-22T12:46:46.113888,15.27576532,.0002389,43.0036,111.0499,267.0322,93.0256,0,U,66865,999,3222,.71429597E-3,.19444E-3,0
STARLINK-36126,2025-281U,2026-06-22T12:32:11.333760,15.27588189,.00007045,42.9991,111.8376,281.4815,78.5957,0,U,66866,999,3220,.54010747E-3,.14634E-3,0
STARLINK-36101,2025-281V,2026-06-21T20:45:04.409568,15.27580356,.00012492,42.9991,115.5002,267.5026,92.5682,0,U,66867,999,3210,.40029806E-3,.1077E-3,0
STARLINK-36108,2025-281W,2026-06-22T12:21:05.763456,15.27636556,.00019406,42.9982,111.7760,236.6688,123.3978,0,U,66868,999,3220,.11762897E-2,.32305E-3,0
STARLINK-36092,2025-281X,2026-06-22T04:21:03.301344,15.27584134,.00009434,42.9992,113.5749,214.8854,145.1936,0,U,66869,999,3215,.39889458E-3,.10732E-3,0
STARLINK-36114,2025-281Y,2026-06-22T05:49:39.234144,15.27586056,.00012057,43.0001,113.1754,277.7101,82.3614,0,U,66870,999,3216,.43180923E-3,.11641E-3,0
STARLINK-36095,2025-281Z,2026-06-22T04:09:56.875680,15.27591295,.00010822,43.0016,113.5133,280.7552,79.3178,0,U,66871,999,3214,.46662405E-3,.12605E-3,0
STARLINK-36082,2025-281AA,2026-06-22T04:04:23.986848,15.27581294,.00014268,43.0005,113.4858,276.6042,83.4647,0,U,66872,999,3215,.46048667E-3,.12431E-3,0
STARLINK-36128,2025-281AB,2026-06-22T13:14:31.980192,15.27586427,.00014641,43.0022,111.1912,276.1957,83.8728,0,U,66873,999,3216,.39718017E-3,.10685E-3,0
STARLINK-36129,2025-281AC,2026-06-22T13:23:47.242752,15.27584508,.00012635,43.0020,111.2416,281.0867,78.9842,0,U,66874,999,3221,.58472745E-3,.15865E-3,0
STARLINK-36053,2025-281AD,2026-06-22T13:08:59.199360,15.27571469,.00010847,43.0030,111.1609,275.0425,85.0303,0,U,66875,999,3216,.13033301E-3,.3325E-4,0
STARLINK-35702,2025-281AE,2026-06-22T13:18:12.922272,15.27586840,.00010439,43.0031,111.2123,295.6211,64.4533,0,U,66876,999,3221,.1652076E-3,.4288E-4,0
STARLINK-35866,2025-283A,2026-06-22T12:10:10.502400,15.30200076,.00011458,53.1594,257.1988,85.8577,274.2555,0,U,66878,999,3189,.34271446E-3,.9805E-4,0
STARLINK-35749,2025-283B,2026-06-22T11:53:26.430720,15.30223137,.00014958,53.1603,257.1246,89.9484,270.1688,0,U,66879,999,3189,.47903733E-3,.13865E-3,0
STARLINK-35844,2025-283C,2026-06-22T12:01:03.462528,15.30200984,.00013956,53.1598,257.1600,82.1266,277.9893,0,U,66880,999,3189,.60050667E-3,.17468E-3,0
STARLINK-35860,2025-283D,2026-06-22T11:44:20.394816,15.30198916,.00016683,53.1563,257.0786,115.9534,244.1639,0,U,66881,999,3189,.3808536E-3,.10937E-3,0
