STARLINK-36094          
1 66851U 25281D   26173.55047567  .00012468  00000+0  46171-3 0  9994
2 66851  43.0036 111.1863 0001232 286.7975  73.2742 15.27588381 32229
STARLINK-35992          
1 66852U 25281E   26173.54662034  .00017726  00000+0  65188-3 0  9997
2 66852  43.0014 111.1591 0001406 264.0013  96.0678 15.27591968 32225
STARLINK-35986          
1 66853U 25281F   26173.54276397  .00010052  00000+0  37421-3 0  9995
2 66853  43.0002 111.1302 0000577 274.4565  85.6220 15.27587705 32229
STARLINK-36087          
1 66854U 25281G   26173.53890593  .00014193  00000+0  52406-3 0  9995
2 66854  43.0044 111.1020 0001763 270.0887  89.9762 15.27594548 32221
STARLINK-36090          
1 66855U 25281H   26173.52862761  .00009206  00000+0  34355-3 0  9993
2 66855  42.9987 111.0169 0001210 274.2768  85.7945 15.27588927 32221
STARLINK-36072          
1 66856U 25281J   26173.25952132  .00007766  00000+0  29141-3 0  9992
2 66856  42.9980 113.3084 0000863 265.0582  95.0171 15.27582574 32172
STARLINK-36083          
1 66857U 25281K   26173.18643787  .00004149  00000+0  16031-3 0  9994
2 66857  42.9973 113.6188 0001172 264.0326  96.0392 15.27558066 32166
STARLINK-35118          
1 66858U 25281L   26173.17229081  .00012922  00000+0  47805-3 0  9992
2 66858  43.0012 113.5098 0001523 275.7403  84.3275 15.27594857 32165
STARLINK-35646          
1 66859U 25281M   26173.23384550  .00023222  00000+0  85083-3 0  9998
2 66859  43.0016 113.1095 0001608 252.4541 107.6135 15.27575430 32173
STARLINK-35987          
1 66860U 25281N   26173.15172296  .00014052  00000+0  51886-3 0  9998
2 66860  43.0020 113.3536 0002702 240.4396 119.6187 15.27600636 32169
STARLINK-35991          
1 66861U 25281P   26173.53505732  .00021456  00000+0  78678-3 0  9990
2 66861  42.9990 111.0718 0000248 349.2524  10.8323 15.27586884 32224
STARLINK-35974          
1 66862U 25281Q   26173.55690037  .00012206  00000+0  45230-3 0  9997
2 66862  43.0025 111.2346 0001494 269.1731  90.8949 15.27584499 32221
STARLINK-36134          
1 66863U 25281R   26173.52477256  .00006612  00000+0  24956-3 0  9997
2 66863  43.0005 110.9857 0001430 264.9495  95.1193 15.27582731 32229
STARLINK-36070          
1 66864U 25281S   26173.24922945  .00012175  00000+0  45086-3 0  9995
2 66864  42.9983 113.2273 0001280 264.5051  95.5655 15.27605129 32176
STARLINK-36117          
1 66865U 25281T   26173.53247817  .00019444  00000+0  71430-3 0  9994
2 66865  43.0036 111.0499 0002389 267.0322  93.0256 15.27576532 32225
STARLINK-36126          
1 66866U 25281U   26173.52235340  .00014634  00000+0  54011-3 0  9994
2 66866  42.9991 111.8376 0000704 281.4815  78.5957 15.27588189 32207
STARLINK-36101          
1 66867U 25281V   26172.86463437  .00010770  00000+0  40030-3 0  9994
2 66867  42.9991 115.5002 0001249 267.5026  92.5682 15.27580356 32107
STARLINK-36108          
1 66868U 25281W   26173.51465004  .00032305  00000+0  11763-2 0  9998
2 66868  42.9982 111.7760 0001940 236.6688 123.3978 15.27636556 32202
STARLINK-36092          
1 66869U 25281X   26173.18128821  .00010732  00000+0  39889-3 0  9995
2 66869  42.9992 113.5749 0000943 214.8854 145.1936 15.27584134 32150
STARLINK-36114          
1 66870U 25281Y   26173.24281521  .00011641  00000+0  43181-3 0  9991
2 66870  43.0001 113.1754 0001205 277.7101  82.3614 15.27586056 32163
STARLINK-36095          
1 66871U 25281Z   26173.17357495  .00012605  00000+0  46662-3 0  9996
2 66871  43.0016 113.5133 0001082 280.7552  79.3178 15.27591295 32142
STARLINK-36082          
1 66872U 25281AA  26173.16972207  .00012431  00000+0  46049-3 0  9996
2 66872  43.0005 113.4858 0001426 276.6042  83.4647 15.27581294 32150
STARLINK-36128          
1 66873U 25281AB  26173.55175903  .00010685  00000+0  39718-3 0  9992
2 66873  43.0022 111.1912 0001464 276.1957  83.8728 15.27586427 32166
STARLINK-36129          
1 66874U 25281AC  26173.55818568  .00015865  00000+0  58473-3 0  9998
2 66874  43.0020 111.2416 0001263 281.0867  78.9842 15.27584508 32213
STARLINK-36053          
1 66875U 25281AD  26173.54790740  .00003325  00000+0  13033-3 0  9990
2 66875  43.0030 111.1609 0001084 275.0425  85.0303 15.27571469 32169
STARLINK-35702          
1 66876U 25281AE  26173.55431623  .00004288  00000+0  16521-3 0  9998
2 66876  43.0031 111.2123 0001043 295.6211  64.4533 15.27586840 32210
STARLINK-35866          
1 66878U 25283A   26173.50706600  .00009805  00000+0  34271-3 0  9999
2 66878  53.1594 257.1988 0001145  85.8577 274.2555 15.30200076 31890
STARLINK-35749          
1 66879U 25283B   26173.49544480  .00013865  00000+0  47904-3 0  9992
2 66879  53.1603 257.1246 0001495  89.9484 270.1688 15.30223137 31894
STARLINK-35844          
1 66880U 25283C   26173.50073452  .00017468  00000+0  60051-3 0  9993
2 66880  53.1598 257.1600 0001395  82.1266 277.9893 15.30200984 31893
STARLINK-35860          
1 66881U 25283D   26173.48912494  .00010937  00000+0  38085-3 0  9995
2 66881  53.1563 257.0786 0001668 115.9534 244.1639 15.30198916 31891
